
# Worst residual: 3.63 km
# MJD 58345.000000 (2018 Aug 15  0:00)
2011-037B = TA29DCF = Spektr-R booster
1 99999U 11037B   18227.49919926  .00000000  00000-0  00000-0 2  3543
2 99999 024.5390 126.6960 9136019 170.9942 025.0264 00.11142192    01

# Worst residual: 4.28 km
# MJD 58346.000000 (2018 Aug 16  0:00)
2011-037B = TA29DCF = Spektr-R booster
1 99999U 11037B   18228.49919926  .00000000  00000-0  00000-0 2  3544
2 99999 024.6039 126.6021 9136583 171.0595 065.1969 00.11152079    04

# Worst residual: 5.69 km
# MJD 58347.000000 (2018 Aug 17  0:00)
2011-037B = TA29DCF = Spektr-R booster
1 99999U 11037B   18229.49919926  .00000000  00000-0  00000-0 2  3545
2 99999 024.7572 126.4572 9137075 171.1951 105.3034 00.11149551    01

# Worst residual: 8.02 km
# MJD 58348.000000 (2018 Aug 18  0:00)
2011-037B = TA29DCF = Spektr-R booster
1 99999U 11037B   18230.49919926  .00000000  00000-0  00000-0 2  3547
2 99999 024.9786 126.3108 9136467 171.3522 145.2732 00.11142675    02

# Worst residual: 9.83 km
# MJD 58349.000000 (2018 Aug 19  0:00)
2011-037B = TA29DCF = Spektr-R booster
1 99999U 11037B   18231.49919926  .00000000  00000-0  00000-0 2  3548
2 99999 025.2311 126.1983 9134375 171.4883 185.1128 00.11138007    02

# Worst residual: 10.63 km
# MJD 58350.000000 (2018 Aug 20  0:00)
2011-037B = TA29DCF = Spektr-R booster
1 99999U 11037B   18232.49919926  .00000000  00000-0  00000-0 2  3549
2 99999 025.4765 126.1363 9131071 171.5789 224.8777 00.11140423    01

# Worst residual: 10.54 km
# MJD 58351.000000 (2018 Aug 21  0:00)
2011-037B = TA29DCF = Spektr-R booster
1 99999U 11037B   18233.49919926  .00000000  00000-0  00000-0 2  3540
2 99999 025.6820 126.1248 9127277 171.6194 264.6556 00.11153802    03

# Worst residual: 9.30 km
# MJD 58352.000000 (2018 Aug 22  0:00)
2011-037B = TA29DCF = Spektr-R booster
1 99999U 11037B   18234.49919926  .00000000  00000-0  00000-0 2  3541
2 99999 025.8243 126.1512 9123898 171.6240 304.5602 00.11181375    07

# Worst residual: 5.85 km
# MJD 58353.000000 (2018 Aug 23  0:00)
2011-037B = TA29DCF = Spektr-R booster
1 99999U 11037B   18235.49919926  .00000000  00000-0  00000-0 2  3542
2 99999 025.8880 126.1882 9121779 171.6271 344.7283 00.11222181    06

# Worst residual: 6.15 km
# MJD 58354.000000 (2018 Aug 24  0:00)
2011-037B = TA29DCF = Spektr-R booster
1 99999U 11037B   18236.49919926  .00000000  00000-0  00000-0 2  3543
2 99999 025.8946 126.1698 9120427 171.6888 025.1703 00.11240841    07

# Worst residual: 12.21 km
# MJD 58355.000000 (2018 Aug 25  0:00)
2011-037B = TA29DCF = Spektr-R booster
1 99999U 11037B   18237.49919926  .00000000  00000-0  00000-0 2  3544
2 99999 025.9105 126.1454 9115398 171.8091 065.5239 00.11218218    09

# Worst residual: 15.99 km
# MJD 58356.000000 (2018 Aug 26  0:00)
2011-037B = TA29DCF = Spektr-R booster
1 99999U 11037B   18238.49919926  .00000000  00000-0  00000-0 2  3545
2 99999 025.9098 126.1427 9104199 171.9326 105.6915 00.11191161    03

# Worst residual: 18.21 km
# MJD 58357.000000 (2018 Aug 27  0:00)
2011-037B = TA29DCF = Spektr-R booster
1 99999U 11037B   18239.49919926  .00000000  00000-0  00000-0 2  3546
2 99999 025.8630 126.1677 9088150 172.0080 145.7147 00.11167082    05

# Worst residual: 18.91 km
# MJD 58358.000000 (2018 Aug 28  0:00)
2011-037B = TA29DCF = Spektr-R booster
1 99999U 11037B   18240.49919926  .00000000  00000-0  00000-0 2  3548
2 99999 025.7616 126.2053 9069330 172.0240 185.6528 00.11147953    05

# Worst residual: 18.19 km
# MJD 58359.000000 (2018 Aug 29  0:00)
2011-037B = TA29DCF = Spektr-R booster
1 99999U 11037B   18241.49919926  .00000000  00000-0  00000-0 2  3549
2 99999 025.6161 126.2333 9050272 171.9910 225.5657 00.11134035    01

# Worst residual: 15.54 km
# MJD 58360.000000 (2018 Aug 30  0:00)
2011-037B = TA29DCF = Spektr-R booster
1 99999U 11037B   18242.49919926  .00000000  00000-0  00000-0 2  3540
2 99999 025.4547 126.2316 9033799 171.9335 265.5018 00.11124470    01

# Worst residual: 10.60 km
# MJD 58361.000000 (2018 Aug 31  0:00)
2011-037B = TA29DCF = Spektr-R booster
1 99999U 11037B   18243.49919926  .00000000  00000-0  00000-0 2  3541
2 99999 025.3208 126.1942 9022679 171.8825 305.4830 00.11117531    02

# Worst residual: 4.06 km
# MJD 58362.000000 (2018 Sep  1  0:00)
2011-037B = TA29DCF = Spektr-R booster
1 99999U 11037B   18244.49919926  .00000000  00000-0  00000-0 2  3542
2 99999 025.2594 126.1473 9018454 171.8622 345.4899 00.11112134    02

# Worst residual: 9.78 km
# MJD 58363.000000 (2018 Sep  2  0:00)
2011-037B = TA29DCF = Spektr-R booster
1 99999U 11037B   18245.49919926  .00000000  00000-0  00000-0 2  3543
2 99999 025.2726 126.0558 9018486 171.9463 025.4993 00.11114927    03

# Worst residual: 21.71 km
# MJD 58364.000000 (2018 Sep  3  0:00)
2011-037B = TA29DCF = Spektr-R booster
1 99999U 11037B   18246.49919926  .00000000  00000-0  00000-0 2  3544
2 99999 025.5518 125.6673 9019995 172.2478 065.6332 00.11134720    00

# Worst residual: 38.74 km
# MJD 58365.000000 (2018 Sep  4  0:00)
2011-037B = TA29DCF = Spektr-R booster
1 99999U 11037B   18247.49919926  .00000000  00000-0  00000-0 2  3545
2 99999 026.3180 125.0105 9020828 172.7854 106.0248 00.11158909    09

# Worst residual: 69.73 km
# MJD 58366.000000 (2018 Sep  5  0:00)
2011-037B = TA29DCF = Spektr-R booster
1 99999U 11037B   18248.49919926  .00000000  00000-0  00000-0 2  3546
2 99999 027.8632 124.1852 9012546 173.4918 146.6700 00.11169515    01

# Worst residual: 109.57 km
# MJD 58367.000000 (2018 Sep  6  0:00)
2011-037B = TA29DCF = Spektr-R booster
1 99999U 11037B   18249.49919926  .00000000  00000-0  00000-0 2  3547
2 99999 030.3286 123.4757 8968191 174.0751 187.4398 00.11136280    07

# Worst residual: 104.99 km
# MJD 58368.000000 (2018 Sep  7  0:00)
2011-037B = TA29DCF = Spektr-R booster
1 99999U 11037B   18250.49919926  .00000000  00000-0  00000-0 2  3549
2 99999 032.5073 123.2652 8856636 173.9728 227.8927 00.11027243    04

# Worst residual: 72.48 km
# MJD 58369.000000 (2018 Sep  8  0:00)
2011-037B = TA29DCF = Spektr-R booster
1 99999U 11037B   18251.49919926  .00000000  00000-0  00000-0 2  3540
2 99999 032.9224 123.2845 8732513 173.3486 267.5234 00.10900594    02
